{"type": "FeatureCollection", "features": [ {"type": "Feature", "properties": {"norad_id": 31092, "name": "FENGYUN 1C DEB", "group": "fengyun-1c-debris", "lat": 53.83385467105951, "lon": 80.1986341965639, "alt_km": 1131.5440849963688, "timestamp": "2025-12-03T15:48:03.351258+00:00", "meta": {"OBJECT_NAME": "FENGYUN 1C DEB", "OBJECT_ID": "1999-025BGN", "EPOCH": "2025-11-15T07:00:52.552224", "MEAN_MOTION": 13.46401433, "ECCENTRICITY": 0.03278725, "INCLINATION": 99.7115, "RA_OF_ASC_NODE": 75.9227, "ARG_OF_PERICENTER": 204.4209, "MEAN_ANOMALY": 154.1084, "EPHEMERIS_TYPE": 0, "CLASSIFICATION_TYPE": "U", "NORAD_CAT_ID": 31092, "ELEMENT_SET_NO": 999, "REV_AT_EPOCH": 91512, "BSTAR": 0.0042000132, "MEAN_MOTION_DOT": 3.457e-05, "MEAN_MOTION_DDOT": 0}, "tle": {"line1": "1 31092U 99025BGN 25319.29227491  .00003457  00000+0  42000-2 0  9992", "line2": "2 31092  99.7115  75.9227 0327872 204.4209 154.1084 13.46401433915121"}}, "geometry": {"type": "Point", "coordinates": [80.1986341965639, 53.83385467105951]}}, {"type": "Feature", "properties": {"norad_id": 31093, "name": "FENGYUN 1C DEB", "group": "fengyun-1c-debris", "lat": 1.462119431238858, "lon": -2.3115204956898707, "alt_km": 908.0165458884048, "timestamp": "2025-12-03T15:48:03.351267+00:00", "meta": {"OBJECT_NAME": "FENGYUN 1C DEB", "OBJECT_ID": "1999-025BGP", "EPOCH": "2025-12-02T19:47:08.094336", "MEAN_MOTION": 13.80614868, "ECCENTRICITY": 0.02081755, "INCLINATION": 98.5952, "RA_OF_ASC_NODE": 176.7081, "ARG_OF_PERICENTER": 250.1359, "MEAN_ANOMALY": 107.7254, "EPHEMERIS_TYPE": 0, "CLASSIFICATION_TYPE": "U", "NORAD_CAT_ID": 31093, "ELEMENT_SET_NO": 999, "REV_AT_EPOCH": 94370, "BSTAR": 0.00056012777, "MEAN_MOTION_DOT": 6.52e-06, "MEAN_MOTION_DDOT": 0}, "tle": {"line1": "1 31093U 99025BGP 25336.82439924  .00000652  00000+0  56013-3 0  9991", "line2": "2 31093  98.5952 176.7081 0208175 250.1359 107.7254 13.80614868943708"}}, "geometry": {"type": "Point", "coordinates": [-2.3115204956898707, 1.462119431238858]}}, {"type": "Feature", "properties": {"norad_id": 31094, "name": "FENGYUN 1C DEB", "group": "fengyun-1c-debris", "lat": -34.2581754829972, "lon": -148.13464152952682, "alt_km": 914.4970705689593, "timestamp": "2025-12-03T15:48:03.351276+00:00", "meta": {"OBJECT_NAME": "FENGYUN 1C DEB", "OBJECT_ID": "1999-025BGQ", "EPOCH": "2025-12-02T14:16:26.636736", "MEAN_MOTION": 14.01973787, "ECCENTRICITY": 0.01063849, "INCLINATION": 98.8572, "RA_OF_ASC_NODE": 204.7358, "ARG_OF_PERICENTER": 74.9944, "MEAN_ANOMALY": 286.2969, "EPHEMERIS_TYPE": 0, "CLASSIFICATION_TYPE": "U", "NORAD_CAT_ID": 31094, "ELEMENT_SET_NO": 999, "REV_AT_EPOCH": 95477, "BSTAR": 0.0017458582, "MEAN_MOTION_DOT": 2.755e-05, "MEAN_MOTION_DDOT": 0}, "tle": {"line1": "1 31094U 99025BGQ 25336.59475274  .00002755  00000+0  17459-2 0  9990", "line2": "2 31094  98.8572 204.7358 0106384  74.9944 286.2969 14.01973787954777"}}, "geometry": {"type": "Point", "coordinates": [-148.13464152952682, -34.2581754829972]}}, {"type": "Feature", "properties": {"norad_id": 31095, "name": "FENGYUN 1C DEB", "group": "fengyun-1c-debris", "lat": -60.81747396442785, "lon": 137.55741488912625, "alt_km": 1187.727693936754, "timestamp": "2025-12-03T15:48:03.351285+00:00", "meta": {"OBJECT_NAME": "FENGYUN 1C DEB", "OBJECT_ID": "1999-025BGR", "EPOCH": "2025-12-03T05:06:12.522816", "MEAN_MOTION": 13.06661132, "ECCENTRICITY": 0.04997786, "INCLINATION": 98.5614, "RA_OF_ASC_NODE": 121.5529, "ARG_OF_PERICENTER": 214.6633, "MEAN_ANOMALY": 142.0948, "EPHEMERIS_TYPE": 0, "CLASSIFICATION_TYPE": "U", "NORAD_CAT_ID": 31095, "ELEMENT_SET_NO": 999, "REV_AT_EPOCH": 89323, "BSTAR": 0.00017518983, "MEAN_MOTION_DOT": 7.3e-07, "MEAN_MOTION_DDOT": 0}, "tle": {"line1": "1 31095U 99025BGR 25337.21264494  .00000073  00000+0  17519-3 0  9990", "line2": "2 31095  98.5614 121.5529 0499778 214.6633 142.0948 13.06661132893239"}}, "geometry": {"type": "Point", "coordinates": [137.55741488912625, -60.81747396442785]}}, {"type": "Feature", "properties": {"norad_id": 31097, "name": "FENGYUN 1C DEB", "group": "fengyun-1c-debris", "lat": -14.920535265333323, "lon": 102.39900425013764, "alt_km": 734.3482965857675, "timestamp": "2025-12-03T15:48:03.351294+00:00", "meta": {"OBJECT_NAME": "FENGYUN 1C DEB", "OBJECT_ID": "1999-025BGT", "EPOCH": "2025-12-01T07:41:11.971680", "MEAN_MOTION": 14.46625294, "ECCENTRICITY": 0.00143641, "INCLINATION": 98.8599, "RA_OF_ASC_NODE": 97.5731, "ARG_OF_PERICENTER": 303.8592, "MEAN_ANOMALY": 111.3458, "EPHEMERIS_TYPE": 0, "CLASSIFICATION_TYPE": "U", "NORAD_CAT_ID": 31097, "ELEMENT_SET_NO": 999, "REV_AT_EPOCH": 96873, "BSTAR": 0.0033518481, "MEAN_MOTION_DOT": 0.00012084, "MEAN_MOTION_DDOT": 0}, "tle": {"line1": "1 31097U 99025BGT 25335.32027745  .00012084  00000+0  33518-2 0  9999", "line2": "2 31097  98.8599  97.5731 0014364 303.8592 111.3458 14.46625294968739"}}, "geometry": {"type": "Point", "coordinates": [102.39900425013764, -14.920535265333323]}}, {"type": "Feature", "properties": {"norad_id": 31098, "name": "FENGYUN 1C DEB", "group": "fengyun-1c-debris", "lat": 64.64139612102328, "lon": 75.87419476901212, "alt_km": 724.4475125656072, "timestamp": "2025-12-03T15:48:03.351303+00:00", "meta": {"OBJECT_NAME": "FENGYUN 1C DEB", "OBJECT_ID": "1999-025BGU", "EPOCH": "2025-12-02T21:17:36.124224", "MEAN_MOTION": 14.51098707, "ECCENTRICITY": 0.0014039, "INCLINATION": 98.8701, "RA_OF_ASC_NODE": 94.2995, "ARG_OF_PERICENTER": 276.386, "MEAN_ANOMALY": 83.5734, "EPHEMERIS_TYPE": 0, "CLASSIFICATION_TYPE": "U", "NORAD_CAT_ID": 31098, "ELEMENT_SET_NO": 999, "REV_AT_EPOCH": 96814, "BSTAR": 0.004447392, "MEAN_MOTION_DOT": 0.00017644, "MEAN_MOTION_DDOT": 0}, "tle": {"line1": "1 31098U 99025BGU 25336.88722366  .00017644  00000+0  44474-2 0  9993", "line2": "2 31098  98.8701  94.2995 0014039 276.3860  83.5734 14.51098707968143"}}, "geometry": {"type": "Point", "coordinates": [75.87419476901212, 64.64139612102328]}}, {"type": "Feature", "properties": {"norad_id": 31099, "name": "FENGYUN 1C DEB", "group": "fengyun-1c-debris", "lat": -61.45378419414031, "lon": -113.26026881524454, "alt_km": 761.4381819323435, "timestamp": "2025-12-03T15:48:03.351312+00:00", "meta": {"OBJECT_NAME": "FENGYUN 1C DEB", "OBJECT_ID": "1999-025BGV", "EPOCH": "2025-12-01T15:36:09.260352", "MEAN_MOTION": 14.27891635, "ECCENTRICITY": 0.00630641, "INCLINATION": 98.9374, "RA_OF_ASC_NODE": 227.8712, "ARG_OF_PERICENTER": 313.9725, "MEAN_ANOMALY": 105.9469, "EPHEMERIS_TYPE": 0, "CLASSIFICATION_TYPE": "U", "NORAD_CAT_ID": 31099, "ELEMENT_SET_NO": 999, "REV_AT_EPOCH": 97313, "BSTAR": 0.00035336263, "MEAN_MOTION_DOT": 8.46e-06, "MEAN_MOTION_DDOT": 0}, "tle": {"line1": "1 31099U 99025BGV 25335.65010718  .00000846  00000+0  35336-3 0  9993", "line2": "2 31099  98.9374 227.8712 0063064 313.9725 105.9469 14.27891635973135"}}, "geometry": {"type": "Point", "coordinates": [-113.26026881524454, -61.45378419414031]}}, {"type": "Feature", "properties": {"norad_id": 31146, "name": "FENGYUN 1C DEB", "group": "fengyun-1c-debris", "lat": 16.686565877266936, "lon": 90.83975492982903, "alt_km": 667.736544608947, "timestamp": "2025-12-03T15:48:03.351321+00:00", "meta": {"OBJECT_NAME": "FENGYUN 1C DEB", "OBJECT_ID": "1999-025BGY", "EPOCH": "2025-12-03T06:37:17.171616", "MEAN_MOTION": 14.27671465, "ECCENTRICITY": 0.02121946, "INCLINATION": 99.0403, "RA_OF_ASC_NODE": 267.7085, "ARG_OF_PERICENTER": 194.417, "MEAN_ANOMALY": 165.0896, "EPHEMERIS_TYPE": 0, "CLASSIFICATION_TYPE": "U", "NORAD_CAT_ID": 31146, "ELEMENT_SET_NO": 999, "REV_AT_EPOCH": 96630, "BSTAR": 0.00053234432, "MEAN_MOTION_DOT": 1.615e-05, "MEAN_MOTION_DDOT": 0}, "tle": {"line1": "1 31146U 99025BGY 25337.27589319  .00001615  00000+0  53234-3 0  9996", "line2": "2 31146  99.0403 267.7085 0212194 194.4170 165.0896 14.27671465966304"}}, "geometry": {"type": "Point", "coordinates": [90.83975492982903, 16.686565877266936]}}, {"type": "Feature", "properties": {"norad_id": 31148, "name": "FENGYUN 1C DEB", "group": "fengyun-1c-debris", "lat": -4.297509770142384, "lon": 42.18050830245239, "alt_km": 777.9965971708707, "timestamp": "2025-12-03T15:48:03.351330+00:00", "meta": {"OBJECT_NAME": "FENGYUN 1C DEB", "OBJECT_ID": "1999-025BHA", "EPOCH": "2025-12-01T09:43:14.615328", "MEAN_MOTION": 14.43252139, "ECCENTRICITY": 0.01364315, "INCLINATION": 98.8662, "RA_OF_ASC_NODE": 220.5077, "ARG_OF_PERICENTER": 84.1951, "MEAN_ANOMALY": 277.4773, "EPHEMERIS_TYPE": 0, "CLASSIFICATION_TYPE": "U", "NORAD_CAT_ID": 31148, "ELEMENT_SET_NO": 999, "REV_AT_EPOCH": 97367, "BSTAR": 0.00092433394, "MEAN_MOTION_DOT": 3.432e-05, "MEAN_MOTION_DDOT": 0}, "tle": {"line1": "1 31148U 99025BHA 25335.40503027  .00003432  00000+0  92433-3 0  9996", "line2": "2 31148  98.8662 220.5077 0136431  84.1951 277.4773 14.43252139973670"}}, "geometry": {"type": "Point", "coordinates": [42.18050830245239, -4.297509770142384]}}, {"type": "Feature", "properties": {"norad_id": 31150, "name": "FENGYUN 1C DEB", "group": "fengyun-1c-debris", "lat": -33.449997580196225, "lon": 160.79286470756924, "alt_km": 846.782465497774, "timestamp": "2025-12-03T15:48:03.351339+00:00", "meta": {"OBJECT_NAME": "FENGYUN 1C DEB", "OBJECT_ID": "1999-025BHC", "EPOCH": "2025-12-03T06:35:40.155648", "MEAN_MOTION": 14.12724435, "ECCENTRICITY": 0.00147962, "INCLINATION": 98.6861, "RA_OF_ASC_NODE": 346.2171, "ARG_OF_PERICENTER": 186.1769, "MEAN_ANOMALY": 237.6969, "EPHEMERIS_TYPE": 0, "CLASSIFICATION_TYPE": "U", "NORAD_CAT_ID": 31150, "ELEMENT_SET_NO": 999, "REV_AT_EPOCH": 96163, "BSTAR": 0.00022384785, "MEAN_MOTION_DOT": 3.73e-06, "MEAN_MOTION_DDOT": 0}, "tle": {"line1": "1 31150U 99025BHC 25337.27477032  .00000373  00000+0  22385-3 0  9992", "line2": "2 31150  98.6861 346.2171 0014796 186.1769 237.6969 14.12724435961639"}}, "geometry": {"type": "Point", "coordinates": [160.79286470756924, -33.449997580196225]}}]}